STARLINK-31095          
1 58683U 23211S   26068.44516249 -.00004107  00000+0 -13971-3 0  9993
2 58683  43.0059  86.9674 0002186 291.6017  68.4602 15.27598880123696
TANSTAAFL-2             
1 62378U 24247B   26067.20753490  .00013897  00000+0  50872-3 0  9998
2 62378  44.9880 125.0934 0003072 298.8909  61.1666 15.28016845 67506
