[{"OBJECT_NAME":"STARLINK-31095","OBJECT_ID":"2023-211S","EPOCH":"2026-03-09T10:41:02.039136","MEAN_MOTION":15.2759888,"ECCENTRICITY":0.00021865,"INCLINATION":43.0059,"RA_OF_ASC_NODE":86.9674,"ARG_OF_PERICENTER":291.6017,"MEAN_ANOMALY":68.4602,"EPHEMERIS_TYPE":0,"CLASSIFICATION_TYPE":"U","NORAD_CAT_ID":58683,"ELEMENT_SET_NO":999,"REV_AT_EPOCH":12369,"BSTAR":-0.00013971009,"MEAN_MOTION_DOT":-4.107e-5,"MEAN_MOTION_DDOT":0},{"OBJECT_NAME":"TANSTAAFL-2","OBJECT_ID":"2024-247B","EPOCH":"2026-03-08T04:58:51.015360","MEAN_MOTION":15.28016845,"ECCENTRICITY":0.00030723,"INCLINATION":44.988,"RA_OF_ASC_NODE":125.0934,"ARG_OF_PERICENTER":298.8909,"MEAN_ANOMALY":61.1666,"EPHEMERIS_TYPE":0,"CLASSIFICATION_TYPE":"U","NORAD_CAT_ID":62378,"ELEMENT_SET_NO":999,"REV_AT_EPOCH":6750,"BSTAR":0.00050871624,"MEAN_MOTION_DOT":0.00013897,"MEAN_MOTION_DDOT":0}]
